{
    "links": {
        "self": "http://www.neowsapp.com/rest/v1/neo/3843119?api_key=iIulBulltgU6a56xZRHN4H3l9WmuAYTsLGpBGhQ2"
    },
    "id": "3843119",
    "neo_reference_id": "3843119",
    "name": "(2019 NP1)",
    "designation": "2019 NP1",
    "nasa_jpl_url": "http://ssd.jpl.nasa.gov/sbdb.cgi?sstr=3843119",
    "absolute_magnitude_h": 25.1,
    "estimated_diameter": {
        "kilometers": {
            "estimated_diameter_min": 0.0253837029,
            "estimated_diameter_max": 0.0567596853
        },
        "meters": {
            "estimated_diameter_min": 25.3837029364,
            "estimated_diameter_max": 56.7596852866
        },
        "miles": {
            "estimated_diameter_min": 0.0157726969,
            "estimated_diameter_max": 0.0352688224
        },
        "feet": {
            "estimated_diameter_min": 83.279867942,
            "estimated_diameter_max": 186.2194458756
        }
    },
    "is_potentially_hazardous_asteroid": false,
    "close_approach_data": [
        {
            "close_approach_date": "2009-11-30",
            "close_approach_date_full": "2009-Nov-30 01:06",
            "epoch_date_close_approach": 1259543160000,
            "relative_velocity": {
                "kilometers_per_second": "14.763486187",
                "kilometers_per_hour": "53148.5502733678",
                "miles_per_hour": "33024.4422518045"
            },
            "miss_distance": {
                "astronomical": "0.1994939169",
                "lunar": "77.6031336741",
                "kilometers": "29843865.046197003",
                "miles": "18544117.8375365214"
            },
            "orbiting_body": "Earth"
        },
        {
            "close_approach_date": "2019-07-07",
            "close_approach_date_full": "2019-Jul-07 14:01",
            "epoch_date_close_approach": 1562508060000,
            "relative_velocity": {
                "kilometers_per_second": "12.2842306677",
                "kilometers_per_hour": "44223.230403684",
                "miles_per_hour": "27478.5955805558"
            },
            "miss_distance": {
                "astronomical": "0.0169818116",
                "lunar": "6.6059247124",
                "kilometers": "2540442.844101292",
                "miles": "1578557.9846181496"
            },
            "orbiting_body": "Earth"
        },
        {
            "close_approach_date": "2024-06-19",
            "close_approach_date_full": "2024-Jun-19 21:36",
            "epoch_date_close_approach": 1718832960000,
            "relative_velocity": {
                "kilometers_per_second": "19.0341171964",
                "kilometers_per_hour": "68522.821906919",
                "miles_per_hour": "42577.416756552"
            },
            "miss_distance": {
                "astronomical": "0.2505757141",
                "lunar": "97.4739527849",
                "kilometers": "37485593.103088967",
                "miles": "23292467.4681910646"
            },
            "orbiting_body": "Earth"
        },
        {
            "close_approach_date": "2038-03-27",
            "close_approach_date_full": "2038-Mar-27 21:38",
            "epoch_date_close_approach": 2153338680000,
            "relative_velocity": {
                "kilometers_per_second": "8.1156260428",
                "kilometers_per_hour": "29216.2537541457",
                "miles_per_hour": "18153.8438951801"
            },
            "miss_distance": {
                "astronomical": "0.0777999929",
                "lunar": "30.2641972381",
                "kilometers": "11638713.223855123",
                "miles": "7231961.0468137774"
            },
            "orbiting_body": "Mars"
        }
    ],
    "orbital_data": {
        "orbit_id": "1",
        "orbit_determination_date": "2019-07-05 09:42:08",
        "first_observation_date": "2019-07-03",
        "last_observation_date": "2019-07-05",
        "data_arc_in_days": 2,
        "observations_used": 56,
        "orbit_uncertainty": "7",
        "minimum_orbit_intersection": ".00819175",
        "jupiter_tisserand_invariant": "4.647",
        "epoch_osculation": "2459000.5",
        "eccentricity": ".3991192596404897",
        "semi_major_axis": "1.397573603796582",
        "inclination": "13.56090603120933",
        "ascending_node_longitude": "105.302188793687",
        "orbital_period": "603.4766364201647",
        "perihelion_distance": ".8397750617561993",
        "perihelion_argument": "244.5360597160014",
        "aphelion_distance": "1.955372145836965",
        "perihelion_time": "2458721.566268055565",
        "mean_anomaly": "166.396074743949",
        "mean_motion": ".5965433925255617",
        "equinox": "J2000",
        "orbit_class": {
            "orbit_class_type": "APO",
            "orbit_class_description": "Near-Earth asteroid orbits which cross the Earth’s orbit similar to that of 1862 Apollo",
            "orbit_class_range": "a (semi-major axis) > 1.0 AU; q (perihelion) < 1.017 AU"
        }
    },
    "is_sentry_object": false
}